[{"OBJECT_NAME":"NUSAT-49 (KLARA DAN VON NEUMANN)","OBJECT_ID":"2024-149AJ","EPOCH":"2026-03-09T19:09:16.004160","MEAN_MOTION":15.30828857,"ECCENTRICITY":0.00011321,"INCLINATION":97.3807,"RA_OF_ASC_NODE":150.738,"ARG_OF_PERICENTER":286.7761,"MEAN_ANOMALY":73.3356,"EPHEMERIS_TYPE":0,"CLASSIFICATION_TYPE":"U","NORAD_CAT_ID":60500,"ELEMENT_SET_NO":999,"REV_AT_EPOCH":8693,"BSTAR":0.00043568345,"MEAN_MOTION_DOT":0.00012912,"MEAN_MOTION_DDOT":0},{"OBJECT_NAME":"STARLINK-33949","OBJECT_ID":"2025-110K","EPOCH":"2026-03-09T21:53:53.528640","MEAN_MOTION":15.30220734,"ECCENTRICITY":0.0001774,"INCLINATION":53.1606,"RA_OF_ASC_NODE":25.9394,"ARG_OF_PERICENTER":106.5126,"MEAN_ANOMALY":253.607,"EPHEMERIS_TYPE":0,"CLASSIFICATION_TYPE":"U","NORAD_CAT_ID":64105,"ELEMENT_SET_NO":999,"REV_AT_EPOCH":4591,"BSTAR":0.0016091324,"MEAN_MOTION_DOT":0.00047636,"MEAN_MOTION_DDOT":0}]
